IRIDIUM 63              
1 25286U 98021B   25359.99917973  .00000397  00000+0  12805-3 0  9998
2 25286  86.3982   1.6492 0002282  84.3618 275.7839 14.36745854451386
IRIDIUM 69              
1 25319U 98026A   25359.97600038  .00000415  00000+0  12236-3 0  9998
2 25319  86.3970  14.3416 0004558 101.3777 258.7935 14.41228227450687
IRIDIUM 71              
1 25320U 98026B   25359.54531707  .00000296  00000+0  85466-4 0  9992
2 25320  86.3971   9.1952 0003169 132.2728 227.8741 14.41325380451156
IRIDIUM 73              
1 25344U 98032C   25359.94159797  .00000691  00000+0  16598-3 0  9992
2 25344  86.4418 325.3778 0002990  82.6315 277.5230 14.52007052458381
IRIDIUM 82              
1 25467U 98051A   25360.10109767  .00044541  00000+0  80249-3 0  9997
2 25467  86.3602  14.3747 0057128 281.3660  78.1184 15.47756407453463
